<?xml version="1.0" encoding="UTF-8"?>
<gpx creator="StravaGPX" version="1.1" xmlns="http://www.topografix.com/GPX/1/1" xmlns:xsi="http://www.w3.org/2001/XMLSchema-instance" xsi:schemaLocation="http://www.topografix.com/GPX/1/1 http://www.topografix.com/GPX/1/1/gpx.xsd">
 <metadata>
  <name>HPI - Teltow - Brandenburg Gate </name>
  <author>
   <name>Martin Taraz</name>
   <link href="https://www.strava.com/athletes/103723377"/>
  </author>
  <copyright author="OpenStreetMap contributors">
   <year>2020</year>
   <license>https://www.openstreetmap.org/copyright</license>
  </copyright>
  <link href="https://www.strava.com/routes/3509174044547192136"/>
 </metadata>
 <trk>
  <name>HPI - Teltow - Brandenburg Gate </name>
  <link href="https://www.strava.com/routes/3509174044547192136"/>
  <type>running</type>
  <trkseg>
   <trkpt lat="52.39399" lon="13.133350000000002">
    <ele>40.480000000000004</ele>
   </trkpt>
   <trkpt lat="52.39396000000001" lon="13.133270000000001">
    <ele>40.5</ele>
   </trkpt>
   <trkpt lat="52.393950000000004" lon="13.13319">
    <ele>40.5</ele>
   </trkpt>
   <trkpt lat="52.39383" lon="13.133170000000002">
    <ele>41.25</ele>
   </trkpt>
   <trkpt lat="52.393800000000006" lon="13.13315">
    <ele>41.25</ele>
   </trkpt>
   <trkpt lat="52.393730000000005" lon="13.13297">
    <ele>41.650000000000006</ele>
   </trkpt>
   <trkpt lat="52.39361" lon="13.13278">
    <ele>42.35</ele>
   </trkpt>
   <trkpt lat="52.39358000000001" lon="13.13259">
    <ele>43.35000000000001</ele>
   </trkpt>
   <trkpt lat="52.39323" lon="13.132620000000001">
    <ele>43.58</ele>
   </trkpt>
   <trkpt lat="52.39323" lon="13.13273">
    <ele>43.58</ele>
   </trkpt>
   <trkpt lat="52.39274" lon="13.13207">
    <ele>44.01</ele>
   </trkpt>
   <trkpt lat="52.39235000097129" lon="13.131569995474878">
    <ele>43.800000000000004</ele>
   </trkpt>
   <trkpt lat="52.391960000000005" lon="13.131070000000001">
    <ele>43.83</ele>
   </trkpt>
   <trkpt lat="52.391960000000005" lon="13.13076">
    <ele>44.11</ele>
   </trkpt>
   <trkpt lat="52.391740000000006" lon="13.130770000000002">
    <ele>44.96000000000001</ele>
   </trkpt>
   <trkpt lat="52.391760000000005" lon="13.13189">
    <ele>45.67</ele>
   </trkpt>
   <trkpt lat="52.39224667058855" lon="13.132569985032267">
    <ele>45.50000000000001</ele>
   </trkpt>
   <trkpt lat="52.39273333727557" lon="13.133249985060486">
    <ele>44.95</ele>
   </trkpt>
   <trkpt lat="52.39322000000001" lon="13.133930000000001">
    <ele>43.97</ele>
   </trkpt>
   <trkpt lat="52.39359000174995" lon="13.134579994493574">
    <ele>43.910000000000004</ele>
   </trkpt>
   <trkpt lat="52.39396000000001" lon="13.135230000000002">
    <ele>44.79</ele>
   </trkpt>
   <trkpt lat="52.39443500311994" lon="13.13609999050201">
    <ele>45.12</ele>
   </trkpt>
   <trkpt lat="52.39491" lon="13.136970000000002">
    <ele>44.370000000000005</ele>
   </trkpt>
   <trkpt lat="52.395305002560015" lon="13.137749993005341">
    <ele>41.88</ele>
   </trkpt>
   <trkpt lat="52.395700000000005" lon="13.138530000000001">
    <ele>40.550000000000004</ele>
   </trkpt>
   <trkpt lat="52.39595500155064" lon="13.13913999642939">
    <ele>40.43</ele>
   </trkpt>
   <trkpt lat="52.39621" lon="13.139750000000001">
    <ele>40.34</ele>
   </trkpt>
   <trkpt lat="52.39640000000001" lon="13.140300000000002">
    <ele>40.080000000000005</ele>
   </trkpt>
   <trkpt lat="52.39677000207348" lon="13.141009993944968">
    <ele>39.650000000000006</ele>
   </trkpt>
   <trkpt lat="52.39714000000001" lon="13.141720000000001">
    <ele>38.59</ele>
   </trkpt>
   <trkpt lat="52.39726" lon="13.142000000000001">
    <ele>38.25000000000001</ele>
   </trkpt>
   <trkpt lat="52.39737" lon="13.142360000000002">
    <ele>37.15</ele>
   </trkpt>
   <trkpt lat="52.39759" lon="13.143650000000001">
    <ele>36.27</ele>
   </trkpt>
   <trkpt lat="52.39703" lon="13.144100000000002">
    <ele>35.29</ele>
   </trkpt>
   <trkpt lat="52.396730000000005" lon="13.144390000000001">
    <ele>35.04</ele>
   </trkpt>
   <trkpt lat="52.396710000000006" lon="13.1445">
    <ele>34.9</ele>
   </trkpt>
   <trkpt lat="52.39672" lon="13.144630000000001">
    <ele>34.800000000000004</ele>
   </trkpt>
   <trkpt lat="52.397000000000006" lon="13.145650000000002">
    <ele>33.46</ele>
   </trkpt>
   <trkpt lat="52.397090000000006" lon="13.146120000000002">
    <ele>33.32</ele>
   </trkpt>
   <trkpt lat="52.39715" lon="13.14666">
    <ele>33.330000000000005</ele>
   </trkpt>
   <trkpt lat="52.39715" lon="13.147110000000001">
    <ele>33.32</ele>
   </trkpt>
   <trkpt lat="52.39712" lon="13.14761">
    <ele>33.510000000000005</ele>
   </trkpt>
   <trkpt lat="52.39708" lon="13.14783">
    <ele>33.480000000000004</ele>
   </trkpt>
   <trkpt lat="52.396910000000005" lon="13.14849">
    <ele>33.0</ele>
   </trkpt>
   <trkpt lat="52.39679" lon="13.149030000000002">
    <ele>33.410000000000004</ele>
   </trkpt>
   <trkpt lat="52.3967" lon="13.149600000000001">
    <ele>33.53</ele>
   </trkpt>
   <trkpt lat="52.39659000289864" lon="13.150430002126487">
    <ele>34.04</ele>
   </trkpt>
   <trkpt lat="52.396480000000004" lon="13.15126">
    <ele>34.480000000000004</ele>
   </trkpt>
   <trkpt lat="52.396360009061695" lon="13.15229667235493">
    <ele>34.440000000000005</ele>
   </trkpt>
   <trkpt lat="52.39624000905584" lon="13.153333339072104">
    <ele>33.940000000000005</ele>
   </trkpt>
   <trkpt lat="52.39612" lon="13.154370000000002">
    <ele>33.660000000000004</ele>
   </trkpt>
   <trkpt lat="52.39607" lon="13.155380000000001">
    <ele>34.18</ele>
   </trkpt>
   <trkpt lat="52.39605" lon="13.156820000000002">
    <ele>33.71</ele>
   </trkpt>
   <trkpt lat="52.396100000000004" lon="13.158220000000002">
    <ele>33.77</ele>
   </trkpt>
   <trkpt lat="52.396170000000005" lon="13.159160000000002">
    <ele>33.39</ele>
   </trkpt>
   <trkpt lat="52.39614" lon="13.16008">
    <ele>34.550000000000004</ele>
   </trkpt>
   <trkpt lat="52.396280000000004" lon="13.161370000000002">
    <ele>34.940000000000005</ele>
   </trkpt>
   <trkpt lat="52.39645" lon="13.162040000000001">
    <ele>33.85</ele>
   </trkpt>
   <trkpt lat="52.3965" lon="13.162370000000001">
    <ele>33.690000000000005</ele>
   </trkpt>
   <trkpt lat="52.39661500630929" lon="13.16359499657979">
    <ele>34.22</ele>
   </trkpt>
   <trkpt lat="52.396730000000005" lon="13.16482">
    <ele>34.230000000000004</ele>
   </trkpt>
   <trkpt lat="52.396750000000004" lon="13.165680000000002">
    <ele>34.17</ele>
   </trkpt>
   <trkpt lat="52.396820000000005" lon="13.16576">
    <ele>33.46</ele>
   </trkpt>
   <trkpt lat="52.39688" lon="13.165980000000001">
    <ele>32.92</ele>
   </trkpt>
   <trkpt lat="52.396975004492305" lon="13.167009997963756">
    <ele>32.830000000000005</ele>
   </trkpt>
   <trkpt lat="52.39707000000001" lon="13.168040000000001">
    <ele>33.04</ele>
   </trkpt>
   <trkpt lat="52.39715500241749" lon="13.16879499865887">
    <ele>32.690000000000005</ele>
   </trkpt>
   <trkpt lat="52.397240000000004" lon="13.169550000000001">
    <ele>32.629999999999995</ele>
   </trkpt>
   <trkpt lat="52.397480005185564" lon="13.170659993906295">
    <ele>32.75</ele>
   </trkpt>
   <trkpt lat="52.39772000000001" lon="13.17177">
    <ele>32.800000000000004</ele>
   </trkpt>
   <trkpt lat="52.39799000000001" lon="13.17271">
    <ele>32.92</ele>
   </trkpt>
   <trkpt lat="52.398" lon="13.172870000000001">
    <ele>32.92</ele>
   </trkpt>
   <trkpt lat="52.39824" lon="13.173860000000001">
    <ele>33.14</ele>
   </trkpt>
   <trkpt lat="52.39846000000001" lon="13.175110000000002">
    <ele>33.160000000000004</ele>
   </trkpt>
   <trkpt lat="52.39866000326545" lon="13.175989996005018">
    <ele>33.67</ele>
   </trkpt>
   <trkpt lat="52.398860000000006" lon="13.176870000000001">
    <ele>33.63</ele>
   </trkpt>
   <trkpt lat="52.39904000000001" lon="13.17801">
    <ele>33.5</ele>
   </trkpt>
   <trkpt lat="52.39911500243034" lon="13.178764998974563">
    <ele>33.52</ele>
   </trkpt>
   <trkpt lat="52.399190000000004" lon="13.179520000000002">
    <ele>33.260000000000005</ele>
   </trkpt>
   <trkpt lat="52.39920000426114" lon="13.180524999797068">
    <ele>33.300000000000004</ele>
   </trkpt>
   <trkpt lat="52.399210000000004" lon="13.18153">
    <ele>33.64</ele>
   </trkpt>
   <trkpt lat="52.39914" lon="13.182920000000001">
    <ele>33.940000000000005</ele>
   </trkpt>
   <trkpt lat="52.399150000000006" lon="13.18313">
    <ele>33.81</ele>
   </trkpt>
   <trkpt lat="52.399150000000006" lon="13.183390000000001">
    <ele>33.79</ele>
   </trkpt>
   <trkpt lat="52.39909500266438" lon="13.184185001018292">
    <ele>33.660000000000004</ele>
   </trkpt>
   <trkpt lat="52.39904000000001" lon="13.184980000000001">
    <ele>33.5</ele>
   </trkpt>
   <trkpt lat="52.39904000000001" lon="13.18538">
    <ele>33.57</ele>
   </trkpt>
   <trkpt lat="52.398900000000005" lon="13.18678">
    <ele>33.510000000000005</ele>
   </trkpt>
   <trkpt lat="52.398830000000004" lon="13.187180000000001">
    <ele>33.64</ele>
   </trkpt>
   <trkpt lat="52.398720000000004" lon="13.18734">
    <ele>33.78</ele>
   </trkpt>
   <trkpt lat="52.398720000000004" lon="13.18754">
    <ele>33.56</ele>
   </trkpt>
   <trkpt lat="52.398610000000005" lon="13.18843">
    <ele>33.480000000000004</ele>
   </trkpt>
   <trkpt lat="52.39847" lon="13.189010000000001">
    <ele>33.56</ele>
   </trkpt>
   <trkpt lat="52.3982" lon="13.189900000000002">
    <ele>33.45</ele>
   </trkpt>
   <trkpt lat="52.39811" lon="13.190280000000001">
    <ele>33.54</ele>
   </trkpt>
   <trkpt lat="52.397960000000005" lon="13.190800000000001">
    <ele>33.64</ele>
   </trkpt>
   <trkpt lat="52.39764" lon="13.19167">
    <ele>33.24</ele>
   </trkpt>
   <trkpt lat="52.397510000000004" lon="13.19181">
    <ele>33.22</ele>
   </trkpt>
   <trkpt lat="52.397420000000004" lon="13.19195">
    <ele>33.25</ele>
   </trkpt>
   <trkpt lat="52.39712" lon="13.19269">
    <ele>33.440000000000005</ele>
   </trkpt>
   <trkpt lat="52.39688000258133" lon="13.193470004194403">
    <ele>33.22</ele>
   </trkpt>
   <trkpt lat="52.396640000000005" lon="13.19425">
    <ele>33.39</ele>
   </trkpt>
   <trkpt lat="52.396460000000005" lon="13.194780000000002">
    <ele>33.39</ele>
   </trkpt>
   <trkpt lat="52.396240000000006" lon="13.19569">
    <ele>33.330000000000005</ele>
   </trkpt>
   <trkpt lat="52.39607" lon="13.196200000000001">
    <ele>33.300000000000004</ele>
   </trkpt>
   <trkpt lat="52.395950000000006" lon="13.196510000000002">
    <ele>33.160000000000004</ele>
   </trkpt>
   <trkpt lat="52.395720000000004" lon="13.197320000000001">
    <ele>33.02</ele>
   </trkpt>
   <trkpt lat="52.39547500485994" lon="13.19839500603533">
    <ele>32.800000000000004</ele>
   </trkpt>
   <trkpt lat="52.395230000000005" lon="13.199470000000002">
    <ele>32.660000000000004</ele>
   </trkpt>
   <trkpt lat="52.395100000000006" lon="13.200420000000001">
    <ele>32.690000000000005</ele>
   </trkpt>
   <trkpt lat="52.395100000000006" lon="13.20085">
    <ele>32.61</ele>
   </trkpt>
   <trkpt lat="52.395005004865055" lon="13.201925002430048">
    <ele>32.97</ele>
   </trkpt>
   <trkpt lat="52.39491" lon="13.203000000000001">
    <ele>33.1</ele>
   </trkpt>
   <trkpt lat="52.394870000000004" lon="13.204350000000002">
    <ele>33.17</ele>
   </trkpt>
   <trkpt lat="52.394980004579594" lon="13.205389997564561">
    <ele>33.13</ele>
   </trkpt>
   <trkpt lat="52.39509" lon="13.206430000000001">
    <ele>33.38</ele>
   </trkpt>
   <trkpt lat="52.395070000000004" lon="13.20677">
    <ele>33.68</ele>
   </trkpt>
   <trkpt lat="52.39518" lon="13.20753">
    <ele>35.440000000000005</ele>
   </trkpt>
   <trkpt lat="52.39517000000001" lon="13.208290000000002">
    <ele>38.78</ele>
   </trkpt>
   <trkpt lat="52.39497000000001" lon="13.208480000000002">
    <ele>38.160000000000004</ele>
   </trkpt>
   <trkpt lat="52.39499000000001" lon="13.208540000000001">
    <ele>37.57000000000001</ele>
   </trkpt>
   <trkpt lat="52.39519000000001" lon="13.20892">
    <ele>35.71000000000001</ele>
   </trkpt>
   <trkpt lat="52.395263345486434" lon="13.210119996062954">
    <ele>34.58</ele>
   </trkpt>
   <trkpt lat="52.39533667882293" lon="13.211319996114334">
    <ele>34.620000000000005</ele>
   </trkpt>
   <trkpt lat="52.395410000000005" lon="13.212520000000001">
    <ele>34.230000000000004</ele>
   </trkpt>
   <trkpt lat="52.39547" lon="13.212850000000001">
    <ele>34.230000000000004</ele>
   </trkpt>
   <trkpt lat="52.395630000000004" lon="13.213180000000001">
    <ele>34.13</ele>
   </trkpt>
   <trkpt lat="52.39584000000001" lon="13.213540000000002">
    <ele>34.31</ele>
   </trkpt>
   <trkpt lat="52.39603" lon="13.21381">
    <ele>34.36</ele>
   </trkpt>
   <trkpt lat="52.39614" lon="13.214020000000001">
    <ele>34.38</ele>
   </trkpt>
   <trkpt lat="52.39623" lon="13.214480000000002">
    <ele>34.43</ele>
   </trkpt>
   <trkpt lat="52.39637000473948" lon="13.215539996632225">
    <ele>34.57</ele>
   </trkpt>
   <trkpt lat="52.396510000000006" lon="13.216600000000001">
    <ele>34.77</ele>
   </trkpt>
   <trkpt lat="52.396510000000006" lon="13.216730000000002">
    <ele>34.77</ele>
   </trkpt>
   <trkpt lat="52.3965" lon="13.21686">
    <ele>35.07</ele>
   </trkpt>
   <trkpt lat="52.39641" lon="13.21704">
    <ele>35.14</ele>
   </trkpt>
   <trkpt lat="52.39618" lon="13.217260000000001">
    <ele>35.49</ele>
   </trkpt>
   <trkpt lat="52.395990000000005" lon="13.217550000000001">
    <ele>36.02</ele>
   </trkpt>
   <trkpt lat="52.395915003181365" lon="13.218415001183962">
    <ele>37.34</ele>
   </trkpt>
   <trkpt lat="52.39584000000001" lon="13.219280000000001">
    <ele>37.75000000000001</ele>
   </trkpt>
   <trkpt lat="52.39574000341953" lon="13.220175001668073">
    <ele>37.85</ele>
   </trkpt>
   <trkpt lat="52.39564000000001" lon="13.221070000000001">
    <ele>37.92</ele>
   </trkpt>
   <trkpt lat="52.395570000000006" lon="13.221900000000002">
    <ele>37.96</ele>
   </trkpt>
   <trkpt lat="52.39548000288361" lon="13.222725001570451">
    <ele>38.080000000000005</ele>
   </trkpt>
   <trkpt lat="52.395390000000006" lon="13.223550000000001">
    <ele>38.17</ele>
   </trkpt>
   <trkpt lat="52.3954" lon="13.223700000000001">
    <ele>38.220000000000006</ele>
   </trkpt>
   <trkpt lat="52.395590000000006" lon="13.224240000000002">
    <ele>38.220000000000006</ele>
   </trkpt>
   <trkpt lat="52.395810000000004" lon="13.224800000000002">
    <ele>38.510000000000005</ele>
   </trkpt>
   <trkpt lat="52.39582000000001" lon="13.22497">
    <ele>38.42</ele>
   </trkpt>
   <trkpt lat="52.39633000112872" lon="13.22549999381631">
    <ele>38.400000000000006</ele>
   </trkpt>
   <trkpt lat="52.396840000000005" lon="13.226030000000002">
    <ele>38.2</ele>
   </trkpt>
   <trkpt lat="52.397000000000006" lon="13.226170000000002">
    <ele>38.220000000000006</ele>
   </trkpt>
   <trkpt lat="52.39741000000001" lon="13.226640000000002">
    <ele>38.510000000000005</ele>
   </trkpt>
   <trkpt lat="52.3975" lon="13.226770000000002">
    <ele>38.510000000000005</ele>
   </trkpt>
   <trkpt lat="52.39788000000001" lon="13.227480000000002">
    <ele>39.6</ele>
   </trkpt>
   <trkpt lat="52.39797" lon="13.227580000000001">
    <ele>39.730000000000004</ele>
   </trkpt>
   <trkpt lat="52.39795" lon="13.22765">
    <ele>39.790000000000006</ele>
   </trkpt>
   <trkpt lat="52.39804" lon="13.22766">
    <ele>39.769999999999996</ele>
   </trkpt>
   <trkpt lat="52.398050000000005" lon="13.227730000000001">
    <ele>39.790000000000006</ele>
   </trkpt>
   <trkpt lat="52.39858" lon="13.227540000000001">
    <ele>39.61000000000001</ele>
   </trkpt>
   <trkpt lat="52.398590000000006" lon="13.227720000000001">
    <ele>39.790000000000006</ele>
   </trkpt>
   <trkpt lat="52.398810000000005" lon="13.228580000000001">
    <ele>38.67</ele>
   </trkpt>
   <trkpt lat="52.39878" lon="13.228800000000001">
    <ele>36.61</ele>
   </trkpt>
   <trkpt lat="52.39878" lon="13.229030000000002">
    <ele>35.730000000000004</ele>
   </trkpt>
   <trkpt lat="52.39889" lon="13.22971">
    <ele>35.620000000000005</ele>
   </trkpt>
   <trkpt lat="52.398880000000005" lon="13.22985">
    <ele>35.620000000000005</ele>
   </trkpt>
   <trkpt lat="52.39899500265538" lon="13.230644997852783">
    <ele>35.74</ele>
   </trkpt>
   <trkpt lat="52.39911000000001" lon="13.231440000000001">
    <ele>35.81</ele>
   </trkpt>
   <trkpt lat="52.399280000000005" lon="13.23229">
    <ele>36.32000000000001</ele>
   </trkpt>
   <trkpt lat="52.399280000000005" lon="13.232380000000001">
    <ele>36.32000000000001</ele>
   </trkpt>
   <trkpt lat="52.399350000000005" lon="13.23268">
    <ele>36.160000000000004</ele>
   </trkpt>
   <trkpt lat="52.399350000000005" lon="13.232970000000002">
    <ele>35.79</ele>
   </trkpt>
   <trkpt lat="52.39945" lon="13.233540000000001">
    <ele>35.24</ele>
   </trkpt>
   <trkpt lat="52.399570000000004" lon="13.234060000000001">
    <ele>35.160000000000004</ele>
   </trkpt>
   <trkpt lat="52.399860000000004" lon="13.235090000000001">
    <ele>35.550000000000004</ele>
   </trkpt>
   <trkpt lat="52.399910000000006" lon="13.2352">
    <ele>35.97</ele>
   </trkpt>
   <trkpt lat="52.39997" lon="13.235470000000001">
    <ele>36.08</ele>
   </trkpt>
   <trkpt lat="52.40028" lon="13.236360000000001">
    <ele>35.61</ele>
   </trkpt>
   <trkpt lat="52.40037" lon="13.23651">
    <ele>35.61</ele>
   </trkpt>
   <trkpt lat="52.40068" lon="13.23737">
    <ele>36.19</ele>
   </trkpt>
   <trkpt lat="52.40073" lon="13.237430000000002">
    <ele>36.19</ele>
   </trkpt>
   <trkpt lat="52.40082" lon="13.237490000000001">
    <ele>36.22</ele>
   </trkpt>
   <trkpt lat="52.40099000000001" lon="13.237760000000002">
    <ele>36.67</ele>
   </trkpt>
   <trkpt lat="52.401240001904334" lon="13.23844499591294">
    <ele>38.24</ele>
   </trkpt>
   <trkpt lat="52.40149" lon="13.239130000000001">
    <ele>39.74</ele>
   </trkpt>
   <trkpt lat="52.40090000000001" lon="13.23975">
    <ele>40.1</ele>
   </trkpt>
   <trkpt lat="52.40041" lon="13.24014">
    <ele>39.71</ele>
   </trkpt>
   <trkpt lat="52.40035" lon="13.24017">
    <ele>39.71</ele>
   </trkpt>
   <trkpt lat="52.40021" lon="13.240300000000001">
    <ele>39.71</ele>
   </trkpt>
   <trkpt lat="52.4001" lon="13.240490000000001">
    <ele>39.45</ele>
   </trkpt>
   <trkpt lat="52.39943" lon="13.241140000000001">
    <ele>38.50000000000001</ele>
   </trkpt>
   <trkpt lat="52.3995" lon="13.241330000000001">
    <ele>38.50000000000001</ele>
   </trkpt>
   <trkpt lat="52.399460000000005" lon="13.241430000000001">
    <ele>38.50000000000001</ele>
   </trkpt>
   <trkpt lat="52.39945" lon="13.24158">
    <ele>38.50000000000001</ele>
   </trkpt>
   <trkpt lat="52.39986431714401" lon="13.242694222948446">
    <ele>38.510000000000005</ele>
   </trkpt>
   <trkpt lat="52.40027862381316" lon="13.243808466821603">
    <ele>38.57</ele>
   </trkpt>
   <trkpt lat="52.400692920007124" lon="13.244922731619662">
    <ele>38.760000000000005</ele>
   </trkpt>
   <trkpt lat="52.401107205725516" lon="13.246037017342791">
    <ele>38.85</ele>
   </trkpt>
   <trkpt lat="52.401521480968036" lon="13.24715132399117">
    <ele>38.95</ele>
   </trkpt>
   <trkpt lat="52.40193574573429" lon="13.248265651564976">
    <ele>38.7</ele>
   </trkpt>
   <trkpt lat="52.402350000000006" lon="13.24938">
    <ele>38.55</ele>
   </trkpt>
   <trkpt lat="52.40277667842418" lon="13.250559977204647">
    <ele>38.44</ele>
   </trkpt>
   <trkpt lat="52.40320334510103" lon="13.251739977232374">
    <ele>38.74</ele>
   </trkpt>
   <trkpt lat="52.40363000000001" lon="13.252920000000001">
    <ele>39.02</ele>
   </trkpt>
   <trkpt lat="52.403980003540674" lon="13.253839992622975">
    <ele>38.92</ele>
   </trkpt>
   <trkpt lat="52.40433" lon="13.254760000000001">
    <ele>38.78</ele>
   </trkpt>
   <trkpt lat="52.404560000000004" lon="13.255730000000002">
    <ele>38.57</ele>
   </trkpt>
   <trkpt lat="52.404700000000005" lon="13.256400000000001">
    <ele>38.400000000000006</ele>
   </trkpt>
   <trkpt lat="52.404830000000004" lon="13.257380000000001">
    <ele>38.150000000000006</ele>
   </trkpt>
   <trkpt lat="52.40487" lon="13.25829">
    <ele>37.970000000000006</ele>
   </trkpt>
   <trkpt lat="52.40487" lon="13.25885">
    <ele>37.84</ele>
   </trkpt>
   <trkpt lat="52.404830000000004" lon="13.259540000000001">
    <ele>37.63</ele>
   </trkpt>
   <trkpt lat="52.404790000000006" lon="13.259870000000001">
    <ele>37.35</ele>
   </trkpt>
   <trkpt lat="52.40478" lon="13.260090000000002">
    <ele>37.22</ele>
   </trkpt>
   <trkpt lat="52.404543348350686" lon="13.261423347534075">
    <ele>36.74</ele>
   </trkpt>
   <trkpt lat="52.404306681702494" lon="13.262756680762955">
    <ele>36.480000000000004</ele>
   </trkpt>
   <trkpt lat="52.404070000000004" lon="13.264090000000001">
    <ele>36.56</ele>
   </trkpt>
   <trkpt lat="52.40413" lon="13.26415">
    <ele>35.24</ele>
   </trkpt>
   <trkpt lat="52.40415" lon="13.26434">
    <ele>35.24</ele>
   </trkpt>
   <trkpt lat="52.40401000000001" lon="13.2649">
    <ele>34.510000000000005</ele>
   </trkpt>
   <trkpt lat="52.403890000000004" lon="13.265540000000001">
    <ele>34.86</ele>
   </trkpt>
   <trkpt lat="52.40378334515412" lon="13.266723338979396">
    <ele>35.7</ele>
   </trkpt>
   <trkpt lat="52.40367667849424" lon="13.267906672237027">
    <ele>36.61</ele>
   </trkpt>
   <trkpt lat="52.40357" lon="13.26909">
    <ele>38.11000000000001</ele>
   </trkpt>
   <trkpt lat="52.403470000000006" lon="13.26908">
    <ele>37.910000000000004</ele>
   </trkpt>
   <trkpt lat="52.403240000000004" lon="13.26909">
    <ele>37.88</ele>
   </trkpt>
   <trkpt lat="52.4031" lon="13.26922">
    <ele>37.92</ele>
   </trkpt>
   <trkpt lat="52.40296000000001" lon="13.27011">
    <ele>37.910000000000004</ele>
   </trkpt>
   <trkpt lat="52.40287000000001" lon="13.270940000000001">
    <ele>38.44</ele>
   </trkpt>
   <trkpt lat="52.402820000000006" lon="13.271110000000002">
    <ele>38.53</ele>
   </trkpt>
   <trkpt lat="52.402750000000005" lon="13.271270000000001">
    <ele>38.53</ele>
   </trkpt>
   <trkpt lat="52.40260000000001" lon="13.271510000000001">
    <ele>38.75</ele>
   </trkpt>
   <trkpt lat="52.402260000000005" lon="13.271840000000001">
    <ele>38.81</ele>
   </trkpt>
   <trkpt lat="52.40222000000001" lon="13.271960000000002">
    <ele>38.970000000000006</ele>
   </trkpt>
   <trkpt lat="52.40222000000001" lon="13.27208">
    <ele>38.970000000000006</ele>
   </trkpt>
   <trkpt lat="52.402080000000005" lon="13.272210000000001">
    <ele>38.99</ele>
   </trkpt>
   <trkpt lat="52.40202000000001" lon="13.272160000000001">
    <ele>38.99</ele>
   </trkpt>
   <trkpt lat="52.401970000000006" lon="13.27214">
    <ele>38.99</ele>
   </trkpt>
   <trkpt lat="52.40152999999072" lon="13.272400002766851">
    <ele>38.970000000000006</ele>
   </trkpt>
   <trkpt lat="52.40109" lon="13.272660000000002">
    <ele>39.05</ele>
   </trkpt>
   <trkpt lat="52.40090000000001" lon="13.272720000000001">
    <ele>39.330000000000005</ele>
   </trkpt>
   <trkpt lat="52.400450000000006" lon="13.272680000000001">
    <ele>39.870000000000005</ele>
   </trkpt>
   <trkpt lat="52.40039" lon="13.272710000000002">
    <ele>40.24</ele>
   </trkpt>
   <trkpt lat="52.40035" lon="13.272780000000001">
    <ele>40.24</ele>
   </trkpt>
   <trkpt lat="52.40035" lon="13.27283">
    <ele>40.24</ele>
   </trkpt>
   <trkpt lat="52.40023000000001" lon="13.27283">
    <ele>40.43</ele>
   </trkpt>
   <trkpt lat="52.40021" lon="13.272670000000002">
    <ele>40.56</ele>
   </trkpt>
   <trkpt lat="52.400180000000006" lon="13.272630000000001">
    <ele>40.63</ele>
   </trkpt>
   <trkpt lat="52.400150000000004" lon="13.272540000000001">
    <ele>40.63</ele>
   </trkpt>
   <trkpt lat="52.399890000000006" lon="13.272380000000002">
    <ele>40.85</ele>
   </trkpt>
   <trkpt lat="52.39936" lon="13.272170000000001">
    <ele>41.980000000000004</ele>
   </trkpt>
   <trkpt lat="52.399240000000006" lon="13.272060000000002">
    <ele>41.93</ele>
   </trkpt>
   <trkpt lat="52.39911000000001" lon="13.271840000000001">
    <ele>42.02</ele>
   </trkpt>
   <trkpt lat="52.39875000000001" lon="13.272290000000002">
    <ele>42.46</ele>
   </trkpt>
   <trkpt lat="52.39855000000001" lon="13.2727">
    <ele>42.980000000000004</ele>
   </trkpt>
   <trkpt lat="52.39822667337335" lon="13.273593346498632">
    <ele>43.77</ele>
   </trkpt>
   <trkpt lat="52.397903340013286" lon="13.274486679905655">
    <ele>44.160000000000004</ele>
   </trkpt>
   <trkpt lat="52.397580000000005" lon="13.275380000000002">
    <ele>44.47</ele>
   </trkpt>
   <trkpt lat="52.397290000000005" lon="13.27622">
    <ele>44.77</ele>
   </trkpt>
   <trkpt lat="52.397580000000005" lon="13.275380000000002">
    <ele>44.47</ele>
   </trkpt>
   <trkpt lat="52.397903340093315" lon="13.274486679684514">
    <ele>44.08</ele>
   </trkpt>
   <trkpt lat="52.39822667345338" lon="13.27359334627749">
    <ele>43.32</ele>
   </trkpt>
   <trkpt lat="52.39855000000001" lon="13.2727">
    <ele>42.980000000000004</ele>
   </trkpt>
   <trkpt lat="52.39875000000001" lon="13.272290000000002">
    <ele>42.46</ele>
   </trkpt>
   <trkpt lat="52.39911000000001" lon="13.271840000000001">
    <ele>41.93</ele>
   </trkpt>
   <trkpt lat="52.399240000000006" lon="13.272060000000002">
    <ele>41.980000000000004</ele>
   </trkpt>
   <trkpt lat="52.39936" lon="13.272170000000001">
    <ele>41.940000000000005</ele>
   </trkpt>
   <trkpt lat="52.399890000000006" lon="13.272380000000002">
    <ele>40.85</ele>
   </trkpt>
   <trkpt lat="52.400150000000004" lon="13.272540000000001">
    <ele>40.56</ele>
   </trkpt>
   <trkpt lat="52.400180000000006" lon="13.272630000000001">
    <ele>40.43</ele>
   </trkpt>
   <trkpt lat="52.40021" lon="13.272670000000002">
    <ele>40.43</ele>
   </trkpt>
   <trkpt lat="52.40023000000001" lon="13.27283">
    <ele>40.24</ele>
   </trkpt>
   <trkpt lat="52.40035" lon="13.27283">
    <ele>40.24</ele>
   </trkpt>
   <trkpt lat="52.40035" lon="13.272780000000001">
    <ele>39.870000000000005</ele>
   </trkpt>
   <trkpt lat="52.40039" lon="13.272710000000002">
    <ele>39.870000000000005</ele>
   </trkpt>
   <trkpt lat="52.400450000000006" lon="13.272680000000001">
    <ele>39.870000000000005</ele>
   </trkpt>
   <trkpt lat="52.40090000000001" lon="13.272720000000001">
    <ele>39.330000000000005</ele>
   </trkpt>
   <trkpt lat="52.40109" lon="13.272660000000002">
    <ele>39.05</ele>
   </trkpt>
   <trkpt lat="52.40153000057962" lon="13.272400002418857">
    <ele>39.11000000000001</ele>
   </trkpt>
   <trkpt lat="52.401970000000006" lon="13.27214">
    <ele>38.99</ele>
   </trkpt>
   <trkpt lat="52.40202000000001" lon="13.272160000000001">
    <ele>38.93000000000001</ele>
   </trkpt>
   <trkpt lat="52.402080000000005" lon="13.272210000000001">
    <ele>38.93000000000001</ele>
   </trkpt>
   <trkpt lat="52.402280000000005" lon="13.272770000000001">
    <ele>38.64</ele>
   </trkpt>
   <trkpt lat="52.40240000000001" lon="13.272960000000001">
    <ele>38.64</ele>
   </trkpt>
   <trkpt lat="52.40271500604185" lon="13.274159991307686">
    <ele>38.080000000000005</ele>
   </trkpt>
   <trkpt lat="52.40303" lon="13.275360000000001">
    <ele>37.93000000000001</ele>
   </trkpt>
   <trkpt lat="52.40321" lon="13.275830000000001">
    <ele>37.98</ele>
   </trkpt>
   <trkpt lat="52.403330000000004" lon="13.275760000000002">
    <ele>37.94</ele>
   </trkpt>
   <trkpt lat="52.403670000000005" lon="13.27589">
    <ele>37.55</ele>
   </trkpt>
   <trkpt lat="52.40379" lon="13.275910000000001">
    <ele>37.69</ele>
   </trkpt>
   <trkpt lat="52.403940000000006" lon="13.27588">
    <ele>38.14</ele>
   </trkpt>
   <trkpt lat="52.40439000000001" lon="13.275720000000002">
    <ele>38.61000000000001</ele>
   </trkpt>
   <trkpt lat="52.40462" lon="13.276610000000002">
    <ele>35.480000000000004</ele>
   </trkpt>
   <trkpt lat="52.404880000000006" lon="13.277210000000002">
    <ele>34.46</ele>
   </trkpt>
   <trkpt lat="52.40536" lon="13.278">
    <ele>34.57</ele>
   </trkpt>
   <trkpt lat="52.40581" lon="13.2788">
    <ele>34.480000000000004</ele>
   </trkpt>
   <trkpt lat="52.40623" lon="13.279610000000002">
    <ele>33.910000000000004</ele>
   </trkpt>
   <trkpt lat="52.40675667382395" lon="13.280533311223982">
    <ele>33.79</ele>
   </trkpt>
   <trkpt lat="52.40728334045546" lon="13.2814566444953">
    <ele>35.99</ele>
   </trkpt>
   <trkpt lat="52.407810000000005" lon="13.282380000000002">
    <ele>37.06</ele>
   </trkpt>
   <trkpt lat="52.408080000000005" lon="13.283030000000002">
    <ele>37.25000000000001</ele>
   </trkpt>
   <trkpt lat="52.40838" lon="13.283600000000002">
    <ele>36.89000000000001</ele>
   </trkpt>
   <trkpt lat="52.40883667253602" lon="13.284433316097921">
    <ele>36.46000000000001</ele>
   </trkpt>
   <trkpt lat="52.40929333921353" lon="13.285266649450769">
    <ele>36.660000000000004</ele>
   </trkpt>
   <trkpt lat="52.40975" lon="13.286100000000001">
    <ele>36.24</ele>
   </trkpt>
   <trkpt lat="52.41024000643394" lon="13.286969980755993">
    <ele>35.53000000000001</ele>
   </trkpt>
   <trkpt lat="52.41073000648257" lon="13.287839980841996">
    <ele>35.730000000000004</ele>
   </trkpt>
   <trkpt lat="52.41122000000001" lon="13.288710000000002">
    <ele>36.04</ele>
   </trkpt>
   <trkpt lat="52.41175500385372" lon="13.289664988427676">
    <ele>35.78000000000001</ele>
   </trkpt>
   <trkpt lat="52.412290000000006" lon="13.29062">
    <ele>35.61</ele>
   </trkpt>
   <trkpt lat="52.41263000000001" lon="13.291020000000001">
    <ele>36.22</ele>
   </trkpt>
   <trkpt lat="52.4132" lon="13.292150000000001">
    <ele>36.06</ele>
   </trkpt>
   <trkpt lat="52.41339000000001" lon="13.292600000000002">
    <ele>36.120000000000005</ele>
   </trkpt>
   <trkpt lat="52.41377500682605" lon="13.29387498876723">
    <ele>36.85</ele>
   </trkpt>
   <trkpt lat="52.41416" lon="13.295150000000001">
    <ele>37.32000000000001</ele>
   </trkpt>
   <trkpt lat="52.41422000000001" lon="13.29531">
    <ele>37.32000000000001</ele>
   </trkpt>
   <trkpt lat="52.41438" lon="13.29554">
    <ele>37.11000000000001</ele>
   </trkpt>
   <trkpt lat="52.41452" lon="13.295860000000001">
    <ele>37.27</ele>
   </trkpt>
   <trkpt lat="52.414530000000006" lon="13.295950000000001">
    <ele>37.57000000000001</ele>
   </trkpt>
   <trkpt lat="52.41445" lon="13.296180000000001">
    <ele>38.48</ele>
   </trkpt>
   <trkpt lat="52.41445" lon="13.296330000000001">
    <ele>38.48</ele>
   </trkpt>
   <trkpt lat="52.41452" lon="13.2964">
    <ele>38.57</ele>
   </trkpt>
   <trkpt lat="52.41472" lon="13.29676">
    <ele>38.99</ele>
   </trkpt>
   <trkpt lat="52.414950000000005" lon="13.297060000000002">
    <ele>38.64</ele>
   </trkpt>
   <trkpt lat="52.415470000000006" lon="13.297270000000001">
    <ele>38.34</ele>
   </trkpt>
   <trkpt lat="52.415960000000005" lon="13.29718">
    <ele>37.83</ele>
   </trkpt>
   <trkpt lat="52.41599" lon="13.297200000000002">
    <ele>37.83</ele>
   </trkpt>
   <trkpt lat="52.416520000000006" lon="13.29837">
    <ele>35.34</ele>
   </trkpt>
   <trkpt lat="52.416740000000004" lon="13.29902">
    <ele>35.440000000000005</ele>
   </trkpt>
   <trkpt lat="52.417010000000005" lon="13.299610000000001">
    <ele>35.33</ele>
   </trkpt>
   <trkpt lat="52.41713000000001" lon="13.299980000000001">
    <ele>35.68</ele>
   </trkpt>
   <trkpt lat="52.417210000000004" lon="13.300160000000002">
    <ele>35.81</ele>
   </trkpt>
   <trkpt lat="52.41762000000001" lon="13.3009">
    <ele>35.11</ele>
   </trkpt>
   <trkpt lat="52.417840000000005" lon="13.301260000000001">
    <ele>34.92</ele>
   </trkpt>
   <trkpt lat="52.41828" lon="13.30192">
    <ele>34.72</ele>
   </trkpt>
   <trkpt lat="52.418910000000004" lon="13.302570000000001">
    <ele>36.47</ele>
   </trkpt>
   <trkpt lat="52.41910000000001" lon="13.302800000000001">
    <ele>37.8</ele>
   </trkpt>
   <trkpt lat="52.419270000000004" lon="13.303210000000002">
    <ele>39.620000000000005</ele>
   </trkpt>
   <trkpt lat="52.419340000000005" lon="13.30333">
    <ele>40.330000000000005</ele>
   </trkpt>
   <trkpt lat="52.41987" lon="13.3023">
    <ele>40.61</ele>
   </trkpt>
   <trkpt lat="52.42068666976014" lon="13.302903310999787">
    <ele>39.040000000000006</ele>
   </trkpt>
   <trkpt lat="52.421503336449774" lon="13.30350664434957">
    <ele>39.05</ele>
   </trkpt>
   <trkpt lat="52.422320000000006" lon="13.304110000000001">
    <ele>38.98</ele>
   </trkpt>
   <trkpt lat="52.422805000682764" lon="13.304474996075644">
    <ele>38.760000000000005</ele>
   </trkpt>
   <trkpt lat="52.42329" lon="13.30484">
    <ele>38.760000000000005</ele>
   </trkpt>
   <trkpt lat="52.42409333620431" lon="13.305423312074467">
    <ele>37.93000000000001</ele>
   </trkpt>
   <trkpt lat="52.4248966695384" lon="13.306006645407868">
    <ele>37.410000000000004</ele>
   </trkpt>
   <trkpt lat="52.425700000000006" lon="13.306590000000002">
    <ele>37.49</ele>
   </trkpt>
   <trkpt lat="52.4264" lon="13.307150000000002">
    <ele>37.87</ele>
   </trkpt>
   <trkpt lat="52.42685000042295" lon="13.307469996726942">
    <ele>38.21</ele>
   </trkpt>
   <trkpt lat="52.4273" lon="13.30779">
    <ele>38.50000000000001</ele>
   </trkpt>
   <trkpt lat="52.42805000380105" lon="13.308339971905983">
    <ele>38.59</ele>
   </trkpt>
   <trkpt lat="52.4288000050507" lon="13.308889962527777">
    <ele>39.13</ele>
   </trkpt>
   <trkpt lat="52.42955000374879" lon="13.309439971866462">
    <ele>39.510000000000005</ele>
   </trkpt>
   <trkpt lat="52.4303" lon="13.30999">
    <ele>39.970000000000006</ele>
   </trkpt>
   <trkpt lat="52.430490000000006" lon="13.310200000000002">
    <ele>39.190000000000005</ele>
   </trkpt>
   <trkpt lat="52.43054000000001" lon="13.31042">
    <ele>37.26</ele>
   </trkpt>
   <trkpt lat="52.430640000000004" lon="13.310740000000001">
    <ele>35.89000000000001</ele>
   </trkpt>
   <trkpt lat="52.43085000000001" lon="13.311020000000001">
    <ele>36.56</ele>
   </trkpt>
   <trkpt lat="52.43124" lon="13.311250000000001">
    <ele>38.64</ele>
   </trkpt>
   <trkpt lat="52.431650000000005" lon="13.311850000000002">
    <ele>37.74</ele>
   </trkpt>
   <trkpt lat="52.43224201115734" lon="13.312663956236168">
    <ele>36.89000000000001</ele>
   </trkpt>
   <trkpt lat="52.4328340167264" lon="13.313477934339806">
    <ele>37.11000000000001</ele>
   </trkpt>
   <trkpt lat="52.43342601670689" lon="13.314291934311763">
    <ele>37.76</ele>
   </trkpt>
   <trkpt lat="52.43401801109856" lon="13.315105956152886">
    <ele>38.88</ele>
   </trkpt>
   <trkpt lat="52.434610000000006" lon="13.315920000000002">
    <ele>41.120000000000005</ele>
   </trkpt>
   <trkpt lat="52.43484" lon="13.31619">
    <ele>39.88</ele>
   </trkpt>
   <trkpt lat="52.43506000000001" lon="13.316490000000002">
    <ele>37.93000000000001</ele>
   </trkpt>
   <trkpt lat="52.43527" lon="13.31689">
    <ele>37.92</ele>
   </trkpt>
   <trkpt lat="52.43578" lon="13.317580000000001">
    <ele>38.18000000000001</ele>
   </trkpt>
   <trkpt lat="52.43632" lon="13.318240000000001">
    <ele>37.62</ele>
   </trkpt>
   <trkpt lat="52.436730000000004" lon="13.31864">
    <ele>37.06</ele>
   </trkpt>
   <trkpt lat="52.43679" lon="13.318750000000001">
    <ele>36.85</ele>
   </trkpt>
   <trkpt lat="52.43681" lon="13.318850000000001">
    <ele>36.72</ele>
   </trkpt>
   <trkpt lat="52.43694000000001" lon="13.31914">
    <ele>36.120000000000005</ele>
   </trkpt>
   <trkpt lat="52.43703000000001" lon="13.319270000000001">
    <ele>36.120000000000005</ele>
   </trkpt>
   <trkpt lat="52.43722" lon="13.319440000000002">
    <ele>37.00000000000001</ele>
   </trkpt>
   <trkpt lat="52.437340000000006" lon="13.31943">
    <ele>37.33</ele>
   </trkpt>
   <trkpt lat="52.43739000000001" lon="13.319410000000001">
    <ele>37.33</ele>
   </trkpt>
   <trkpt lat="52.43742" lon="13.319370000000001">
    <ele>37.33</ele>
   </trkpt>
   <trkpt lat="52.43796000197429" lon="13.319853321490267">
    <ele>36.95</ele>
   </trkpt>
   <trkpt lat="52.438500001978305" lon="13.320336654827019">
    <ele>37.32000000000001</ele>
   </trkpt>
   <trkpt lat="52.439040000000006" lon="13.320820000000001">
    <ele>37.61000000000001</ele>
   </trkpt>
   <trkpt lat="52.439780000000006" lon="13.32145">
    <ele>38.03</ele>
   </trkpt>
   <trkpt lat="52.44031500101163" lon="13.321934994128661">
    <ele>38.68000000000001</ele>
   </trkpt>
   <trkpt lat="52.440850000000005" lon="13.322420000000001">
    <ele>38.86000000000001</ele>
   </trkpt>
   <trkpt lat="52.441370001049485" lon="13.322924994014466">
    <ele>39.16</ele>
   </trkpt>
   <trkpt lat="52.44189" lon="13.323430000000002">
    <ele>39.080000000000005</ele>
   </trkpt>
   <trkpt lat="52.44218000000001" lon="13.32374">
    <ele>39.040000000000006</ele>
   </trkpt>
   <trkpt lat="52.44283000000001" lon="13.324570000000001">
    <ele>38.98</ele>
   </trkpt>
   <trkpt lat="52.44314000124427" lon="13.325114996150504">
    <ele>38.55</ele>
   </trkpt>
   <trkpt lat="52.443450000000006" lon="13.325660000000001">
    <ele>37.84</ele>
   </trkpt>
   <trkpt lat="52.44386500297246" lon="13.326494992199178">
    <ele>37.59</ele>
   </trkpt>
   <trkpt lat="52.444280000000006" lon="13.327330000000002">
    <ele>38.09</ele>
   </trkpt>
   <trkpt lat="52.44453000246943" lon="13.32808999578972">
    <ele>39.040000000000006</ele>
   </trkpt>
   <trkpt lat="52.44478" lon="13.328850000000001">
    <ele>39.900000000000006</ele>
   </trkpt>
   <trkpt lat="52.444985002155136" lon="13.329534997402105">
    <ele>41.28</ele>
   </trkpt>
   <trkpt lat="52.445190000000004" lon="13.33022">
    <ele>42.120000000000005</ele>
   </trkpt>
   <trkpt lat="52.44523" lon="13.330490000000001">
    <ele>41.980000000000004</ele>
   </trkpt>
   <trkpt lat="52.4453" lon="13.33073">
    <ele>41.980000000000004</ele>
   </trkpt>
   <trkpt lat="52.445425002724015" lon="13.331534997660425">
    <ele>40.970000000000006</ele>
   </trkpt>
   <trkpt lat="52.445550000000004" lon="13.33234">
    <ele>40.400000000000006</ele>
   </trkpt>
   <trkpt lat="52.4459" lon="13.3336">
    <ele>40.49</ele>
   </trkpt>
   <trkpt lat="52.44597" lon="13.33374">
    <ele>40.52</ele>
   </trkpt>
   <trkpt lat="52.44608" lon="13.333900000000002">
    <ele>40.550000000000004</ele>
   </trkpt>
   <trkpt lat="52.446630000000006" lon="13.334620000000001">
    <ele>39.96</ele>
   </trkpt>
   <trkpt lat="52.446760000000005" lon="13.334710000000001">
    <ele>39.89</ele>
   </trkpt>
   <trkpt lat="52.447030000000005" lon="13.33478">
    <ele>39.86000000000001</ele>
   </trkpt>
   <trkpt lat="52.44753000000001" lon="13.334810000000001">
    <ele>40.11</ele>
   </trkpt>
   <trkpt lat="52.44771000000001" lon="13.33491">
    <ele>40.17</ele>
   </trkpt>
   <trkpt lat="52.44847000000001" lon="13.335540000000002">
    <ele>41.660000000000004</ele>
   </trkpt>
   <trkpt lat="52.44847000000001" lon="13.33562">
    <ele>41.78</ele>
   </trkpt>
   <trkpt lat="52.448510000000006" lon="13.33567">
    <ele>41.78</ele>
   </trkpt>
   <trkpt lat="52.448570000000004" lon="13.33562">
    <ele>41.85</ele>
   </trkpt>
   <trkpt lat="52.44908000079876" lon="13.336034995253781">
    <ele>43.260000000000005</ele>
   </trkpt>
   <trkpt lat="52.44959000000001" lon="13.336450000000001">
    <ele>45.03</ele>
   </trkpt>
   <trkpt lat="52.450190000000006" lon="13.336960000000001">
    <ele>46.540000000000006</ele>
   </trkpt>
   <trkpt lat="52.450190000000006" lon="13.33708">
    <ele>46.52</ele>
   </trkpt>
   <trkpt lat="52.45031" lon="13.337140000000002">
    <ele>46.580000000000005</ele>
   </trkpt>
   <trkpt lat="52.45037000000001" lon="13.337190000000001">
    <ele>46.580000000000005</ele>
   </trkpt>
   <trkpt lat="52.45071" lon="13.33755">
    <ele>47.77</ele>
   </trkpt>
   <trkpt lat="52.4508" lon="13.33759">
    <ele>47.96</ele>
   </trkpt>
   <trkpt lat="52.45087" lon="13.33755">
    <ele>48.1</ele>
   </trkpt>
   <trkpt lat="52.45093000000001" lon="13.337660000000001">
    <ele>48.43</ele>
   </trkpt>
   <trkpt lat="52.45093000000001" lon="13.33769">
    <ele>48.43</ele>
   </trkpt>
   <trkpt lat="52.45098" lon="13.33768">
    <ele>48.35</ele>
   </trkpt>
   <trkpt lat="52.451170000000005" lon="13.337750000000002">
    <ele>48.370000000000005</ele>
   </trkpt>
   <trkpt lat="52.45134" lon="13.337850000000001">
    <ele>48.470000000000006</ele>
   </trkpt>
   <trkpt lat="52.45188" lon="13.33806">
    <ele>48.800000000000004</ele>
   </trkpt>
   <trkpt lat="52.451980000000006" lon="13.338080000000001">
    <ele>49.050000000000004</ele>
   </trkpt>
   <trkpt lat="52.45279000000001" lon="13.338310000000002">
    <ele>49.7</ele>
   </trkpt>
   <trkpt lat="52.453330000017324" lon="13.338454998202872">
    <ele>51.10000000000001</ele>
   </trkpt>
   <trkpt lat="52.45387" lon="13.338600000000001">
    <ele>52.81</ele>
   </trkpt>
   <trkpt lat="52.45407" lon="13.33867">
    <ele>53.36000000000001</ele>
   </trkpt>
   <trkpt lat="52.454840000000004" lon="13.338730000000002">
    <ele>53.17</ele>
   </trkpt>
   <trkpt lat="52.455567500078764" lon="13.338802496407913">
    <ele>51.86</ele>
   </trkpt>
   <trkpt lat="52.4562950001132" lon="13.33887499521127">
    <ele>50.050000000000004</ele>
   </trkpt>
   <trkpt lat="52.45702250010332" lon="13.338947496410219">
    <ele>49.27</ele>
   </trkpt>
   <trkpt lat="52.457750000000004" lon="13.339020000000001">
    <ele>49.010000000000005</ele>
   </trkpt>
   <trkpt lat="52.45796000000001" lon="13.33905">
    <ele>48.980000000000004</ele>
   </trkpt>
   <trkpt lat="52.45801" lon="13.339070000000001">
    <ele>48.980000000000004</ele>
   </trkpt>
   <trkpt lat="52.45848" lon="13.339100000000002">
    <ele>48.78</ele>
   </trkpt>
   <trkpt lat="52.458510000000004" lon="13.33913">
    <ele>48.81</ele>
   </trkpt>
   <trkpt lat="52.45862" lon="13.33914">
    <ele>48.77</ele>
   </trkpt>
   <trkpt lat="52.45869337416149" lon="13.340531655063481">
    <ele>48.830000000000005</ele>
   </trkpt>
   <trkpt lat="52.458766731991595" lon="13.341923314764697">
    <ele>49.220000000000006</ele>
   </trkpt>
   <trkpt lat="52.458840073490215" lon="13.343314979102646">
    <ele>49.260000000000005</ele>
   </trkpt>
   <trkpt lat="52.45891339865724" lon="13.344706648076317">
    <ele>49.480000000000004</ele>
   </trkpt>
   <trkpt lat="52.458986707492585" lon="13.346098321684707">
    <ele>49.650000000000006</ele>
   </trkpt>
   <trkpt lat="52.45906" lon="13.34749">
    <ele>49.35</ele>
   </trkpt>
   <trkpt lat="52.45917000000001" lon="13.347380000000001">
    <ele>49.230000000000004</ele>
   </trkpt>
   <trkpt lat="52.459250000000004" lon="13.347840000000001">
    <ele>48.59</ele>
   </trkpt>
   <trkpt lat="52.459210000000006" lon="13.34801">
    <ele>48.38</ele>
   </trkpt>
   <trkpt lat="52.459210000000006" lon="13.34833">
    <ele>48.24</ele>
   </trkpt>
   <trkpt lat="52.45922" lon="13.34838">
    <ele>48.18</ele>
   </trkpt>
   <trkpt lat="52.45924" lon="13.348410000000001">
    <ele>48.18</ele>
   </trkpt>
   <trkpt lat="52.459270000000004" lon="13.34889">
    <ele>48.190000000000005</ele>
   </trkpt>
   <trkpt lat="52.45924" lon="13.348920000000001">
    <ele>48.190000000000005</ele>
   </trkpt>
   <trkpt lat="52.45922" lon="13.348970000000001">
    <ele>48.190000000000005</ele>
   </trkpt>
   <trkpt lat="52.45927667956029" lon="13.350206663427356">
    <ele>48.080000000000005</ele>
   </trkpt>
   <trkpt lat="52.45933334622442" lon="13.351443330038302">
    <ele>48.260000000000005</ele>
   </trkpt>
   <trkpt lat="52.459390000000006" lon="13.352680000000001">
    <ele>48.63</ele>
   </trkpt>
   <trkpt lat="52.45937000000001" lon="13.35349">
    <ele>48.77</ele>
   </trkpt>
   <trkpt lat="52.45933" lon="13.35382">
    <ele>48.77</ele>
   </trkpt>
   <trkpt lat="52.45924" lon="13.354190000000001">
    <ele>48.77</ele>
   </trkpt>
   <trkpt lat="52.45904" lon="13.35463">
    <ele>48.68</ele>
   </trkpt>
   <trkpt lat="52.45888000000001" lon="13.354890000000001">
    <ele>48.28</ele>
   </trkpt>
   <trkpt lat="52.458800000000004" lon="13.354970000000002">
    <ele>48.28</ele>
   </trkpt>
   <trkpt lat="52.458850000000005" lon="13.355">
    <ele>48.28</ele>
   </trkpt>
   <trkpt lat="52.45917000000001" lon="13.35551">
    <ele>48.0</ele>
   </trkpt>
   <trkpt lat="52.45928000000001" lon="13.35561">
    <ele>48.0</ele>
   </trkpt>
   <trkpt lat="52.45938" lon="13.35565">
    <ele>48.010000000000005</ele>
   </trkpt>
   <trkpt lat="52.46016999995372" lon="13.355669999639925">
    <ele>46.75000000000001</ele>
   </trkpt>
   <trkpt lat="52.46096000000001" lon="13.355690000000001">
    <ele>46.43000000000001</ele>
   </trkpt>
   <trkpt lat="52.460950000000004" lon="13.355900000000002">
    <ele>46.86000000000001</ele>
   </trkpt>
   <trkpt lat="52.46117" lon="13.356420000000002">
    <ele>47.71</ele>
   </trkpt>
   <trkpt lat="52.46191750221956" lon="13.356842478457448">
    <ele>48.68</ele>
   </trkpt>
   <trkpt lat="52.462665002934" lon="13.357264971261639">
    <ele>48.25</ele>
   </trkpt>
   <trkpt lat="52.46341250214326" lon="13.357687478413416">
    <ele>47.650000000000006</ele>
   </trkpt>
   <trkpt lat="52.46416000000001" lon="13.358110000000002">
    <ele>47.66</ele>
   </trkpt>
   <trkpt lat="52.464290000000005" lon="13.35819">
    <ele>47.63</ele>
   </trkpt>
   <trkpt lat="52.464420000000004" lon="13.358300000000002">
    <ele>47.63</ele>
   </trkpt>
   <trkpt lat="52.46505666780585" lon="13.358659989612791">
    <ele>47.21</ele>
   </trkpt>
   <trkpt lat="52.46569333451893" lon="13.359019989638854">
    <ele>46.98</ele>
   </trkpt>
   <trkpt lat="52.466330000000006" lon="13.359380000000002">
    <ele>46.89</ele>
   </trkpt>
   <trkpt lat="52.46709000313601" lon="13.359809970312186">
    <ele>46.970000000000006</ele>
   </trkpt>
   <trkpt lat="52.467850004713114" lon="13.360239955472485">
    <ele>46.98</ele>
   </trkpt>
   <trkpt lat="52.46861000473123" lon="13.360669955481793">
    <ele>46.82</ele>
   </trkpt>
   <trkpt lat="52.46937000319025" lon="13.361099970340996">
    <ele>46.540000000000006</ele>
   </trkpt>
   <trkpt lat="52.470130000000005" lon="13.361530000000002">
    <ele>46.26</ele>
   </trkpt>
   <trkpt lat="52.47021" lon="13.361530000000002">
    <ele>46.26</ele>
   </trkpt>
   <trkpt lat="52.470870000604734" lon="13.361909994299099">
    <ele>45.38</ele>
   </trkpt>
   <trkpt lat="52.47153" lon="13.362290000000002">
    <ele>45.15</ele>
   </trkpt>
   <trkpt lat="52.47191" lon="13.362540000000001">
    <ele>44.74</ele>
   </trkpt>
   <trkpt lat="52.472100000000005" lon="13.362720000000001">
    <ele>44.56</ele>
   </trkpt>
   <trkpt lat="52.47278000000001" lon="13.363180000000002">
    <ele>44.38</ele>
   </trkpt>
   <trkpt lat="52.47321000033539" lon="13.36343499754469">
    <ele>44.03000000000001</ele>
   </trkpt>
   <trkpt lat="52.47364" lon="13.363690000000002">
    <ele>43.940000000000005</ele>
   </trkpt>
   <trkpt lat="52.47386" lon="13.363650000000002">
    <ele>43.95</ele>
   </trkpt>
   <trkpt lat="52.47401000000001" lon="13.363890000000001">
    <ele>43.85000000000001</ele>
   </trkpt>
   <trkpt lat="52.47419000000001" lon="13.364">
    <ele>43.89000000000001</ele>
   </trkpt>
   <trkpt lat="52.474270000000004" lon="13.364030000000001">
    <ele>43.870000000000005</ele>
   </trkpt>
   <trkpt lat="52.47444" lon="13.363930000000002">
    <ele>43.690000000000005</ele>
   </trkpt>
   <trkpt lat="52.474560000000004" lon="13.363990000000001">
    <ele>43.690000000000005</ele>
   </trkpt>
   <trkpt lat="52.47469" lon="13.364030000000001">
    <ele>43.61</ele>
   </trkpt>
   <trkpt lat="52.47542000000001" lon="13.36443">
    <ele>43.39</ele>
   </trkpt>
   <trkpt lat="52.47554" lon="13.364450000000001">
    <ele>43.300000000000004</ele>
   </trkpt>
   <trkpt lat="52.47587000000001" lon="13.36466">
    <ele>43.32</ele>
   </trkpt>
   <trkpt lat="52.47652000000001" lon="13.364250000000002">
    <ele>43.88</ele>
   </trkpt>
   <trkpt lat="52.47665000000001" lon="13.364830000000001">
    <ele>44.13</ele>
   </trkpt>
   <trkpt lat="52.47668" lon="13.364820000000002">
    <ele>44.13</ele>
   </trkpt>
   <trkpt lat="52.476760000000006" lon="13.365210000000001">
    <ele>44.2</ele>
   </trkpt>
   <trkpt lat="52.477030000000006" lon="13.365110000000001">
    <ele>44.43000000000001</ele>
   </trkpt>
   <trkpt lat="52.47717" lon="13.36513">
    <ele>44.61</ele>
   </trkpt>
   <trkpt lat="52.47737000000001" lon="13.36527">
    <ele>44.56</ele>
   </trkpt>
   <trkpt lat="52.477430000000005" lon="13.36528">
    <ele>44.54</ele>
   </trkpt>
   <trkpt lat="52.47748000000001" lon="13.365340000000002">
    <ele>44.54</ele>
   </trkpt>
   <trkpt lat="52.47815666816323" lon="13.365756653871001">
    <ele>44.480000000000004</ele>
   </trkpt>
   <trkpt lat="52.47883333486279" lon="13.366173320557674">
    <ele>44.660000000000004</ele>
   </trkpt>
   <trkpt lat="52.479510000000005" lon="13.36659">
    <ele>44.84</ele>
   </trkpt>
   <trkpt lat="52.479890000000005" lon="13.366980000000002">
    <ele>44.32000000000001</ele>
   </trkpt>
   <trkpt lat="52.48050333478602" lon="13.36739332181723">
    <ele>43.84</ele>
   </trkpt>
   <trkpt lat="52.48111666813174" lon="13.367806655158702">
    <ele>43.17000000000001</ele>
   </trkpt>
   <trkpt lat="52.481730000000006" lon="13.36822">
    <ele>42.77</ele>
   </trkpt>
   <trkpt lat="52.48231000107513" lon="13.368569990796745">
    <ele>42.61</ele>
   </trkpt>
   <trkpt lat="52.48289000111752" lon="13.368919990822178">
    <ele>42.36</ele>
   </trkpt>
   <trkpt lat="52.483470000000004" lon="13.36927">
    <ele>42.34</ele>
   </trkpt>
   <trkpt lat="52.48421000068576" lon="13.369704992616617">
    <ele>42.410000000000004</ele>
   </trkpt>
   <trkpt lat="52.484950000000005" lon="13.370140000000001">
    <ele>42.52</ele>
   </trkpt>
   <trkpt lat="52.485690000000005" lon="13.37057">
    <ele>41.25</ele>
   </trkpt>
   <trkpt lat="52.486110000000004" lon="13.370790000000001">
    <ele>40.38</ele>
   </trkpt>
   <trkpt lat="52.48664" lon="13.370890000000001">
    <ele>40.25</ele>
   </trkpt>
   <trkpt lat="52.487300000000005" lon="13.370970000000002">
    <ele>40.32</ele>
   </trkpt>
   <trkpt lat="52.487825000019676" lon="13.370984999821491">
    <ele>40.5</ele>
   </trkpt>
   <trkpt lat="52.488350000000004" lon="13.371">
    <ele>40.620000000000005</ele>
   </trkpt>
   <trkpt lat="52.48889499976061" lon="13.371004999935847">
    <ele>40.75</ele>
   </trkpt>
   <trkpt lat="52.48944" lon="13.371010000000002">
    <ele>40.540000000000006</ele>
   </trkpt>
   <trkpt lat="52.489560000000004" lon="13.371580000000002">
    <ele>40.31</ele>
   </trkpt>
   <trkpt lat="52.48962" lon="13.371680000000001">
    <ele>40.31</ele>
   </trkpt>
   <trkpt lat="52.48966000000001" lon="13.37171">
    <ele>40.31</ele>
   </trkpt>
   <trkpt lat="52.49039000007121" lon="13.37175999834358">
    <ele>40.35</ele>
   </trkpt>
   <trkpt lat="52.49112000012135" lon="13.371809998346981">
    <ele>40.74</ele>
   </trkpt>
   <trkpt lat="52.49185000000001" lon="13.371860000000002">
    <ele>40.46</ele>
   </trkpt>
   <trkpt lat="52.492090000000005" lon="13.371870000000001">
    <ele>40.2</ele>
   </trkpt>
   <trkpt lat="52.492140000000006" lon="13.371820000000001">
    <ele>40.17</ele>
   </trkpt>
   <trkpt lat="52.49222" lon="13.371390000000002">
    <ele>40.17</ele>
   </trkpt>
   <trkpt lat="52.49271" lon="13.37142">
    <ele>40.480000000000004</ele>
   </trkpt>
   <trkpt lat="52.492850000000004" lon="13.371500000000001">
    <ele>40.57</ele>
   </trkpt>
   <trkpt lat="52.49318" lon="13.371870000000001">
    <ele>39.71</ele>
   </trkpt>
   <trkpt lat="52.49351000000001" lon="13.3718">
    <ele>38.02</ele>
   </trkpt>
   <trkpt lat="52.493950000000005" lon="13.371670000000002">
    <ele>37.720000000000006</ele>
   </trkpt>
   <trkpt lat="52.49400000000001" lon="13.37171">
    <ele>38.040000000000006</ele>
   </trkpt>
   <trkpt lat="52.49405" lon="13.37171">
    <ele>38.040000000000006</ele>
   </trkpt>
   <trkpt lat="52.494420000000005" lon="13.37166">
    <ele>39.550000000000004</ele>
   </trkpt>
   <trkpt lat="52.494690000000006" lon="13.37161">
    <ele>40.14</ele>
   </trkpt>
   <trkpt lat="52.49476000000001" lon="13.371580000000002">
    <ele>40.14</ele>
   </trkpt>
   <trkpt lat="52.49481" lon="13.371530000000002">
    <ele>40.330000000000005</ele>
   </trkpt>
   <trkpt lat="52.49483000000001" lon="13.371410000000001">
    <ele>40.330000000000005</ele>
   </trkpt>
   <trkpt lat="52.49481" lon="13.371260000000001">
    <ele>40.480000000000004</ele>
   </trkpt>
   <trkpt lat="52.49485000000001" lon="13.371170000000001">
    <ele>40.480000000000004</ele>
   </trkpt>
   <trkpt lat="52.494890000000005" lon="13.371150000000002">
    <ele>40.480000000000004</ele>
   </trkpt>
   <trkpt lat="52.494930000000004" lon="13.37118">
    <ele>40.480000000000004</ele>
   </trkpt>
   <trkpt lat="52.49551" lon="13.371950000000002">
    <ele>40.56</ele>
   </trkpt>
   <trkpt lat="52.49579000000001" lon="13.372250000000001">
    <ele>40.34</ele>
   </trkpt>
   <trkpt lat="52.49597000000001" lon="13.372390000000001">
    <ele>39.870000000000005</ele>
   </trkpt>
   <trkpt lat="52.49616" lon="13.37241">
    <ele>39.14</ele>
   </trkpt>
   <trkpt lat="52.496370000000006" lon="13.372330000000002">
    <ele>38.400000000000006</ele>
   </trkpt>
   <trkpt lat="52.49674" lon="13.372290000000001">
    <ele>37.86000000000001</ele>
   </trkpt>
   <trkpt lat="52.49742666679199" lon="13.372190003117472">
    <ele>37.410000000000004</ele>
   </trkpt>
   <trkpt lat="52.49811333349967" lon="13.372090003111554">
    <ele>37.410000000000004</ele>
   </trkpt>
   <trkpt lat="52.4988" lon="13.37199">
    <ele>37.24</ele>
   </trkpt>
   <trkpt lat="52.49884" lon="13.372000000000002">
    <ele>37.06</ele>
   </trkpt>
   <trkpt lat="52.499483334469225" lon="13.37235998948874">
    <ele>37.040000000000006</ele>
   </trkpt>
   <trkpt lat="52.50012666784605" lon="13.372719989512884">
    <ele>36.45</ele>
   </trkpt>
   <trkpt lat="52.50077" lon="13.373080000000002">
    <ele>36.13</ele>
   </trkpt>
   <trkpt lat="52.50130000000001" lon="13.3732">
    <ele>35.84</ele>
   </trkpt>
   <trkpt lat="52.50173" lon="13.373260000000002">
    <ele>35.69</ele>
   </trkpt>
   <trkpt lat="52.502520000000004" lon="13.373450000000002">
    <ele>35.64000000000001</ele>
   </trkpt>
   <trkpt lat="52.50291000000001" lon="13.373560000000001">
    <ele>36.53</ele>
   </trkpt>
   <trkpt lat="52.502900000000004" lon="13.37377">
    <ele>36.53</ele>
   </trkpt>
   <trkpt lat="52.502520000000004" lon="13.37443">
    <ele>37.45</ele>
   </trkpt>
   <trkpt lat="52.50267" lon="13.374730000000001">
    <ele>37.13</ele>
   </trkpt>
   <trkpt lat="52.502950000000006" lon="13.374810000000002">
    <ele>37.35</ele>
   </trkpt>
   <trkpt lat="52.503170000000004" lon="13.37484">
    <ele>36.94</ele>
   </trkpt>
   <trkpt lat="52.503260000000004" lon="13.374640000000001">
    <ele>36.81</ele>
   </trkpt>
   <trkpt lat="52.50345" lon="13.374350000000002">
    <ele>36.52</ele>
   </trkpt>
   <trkpt lat="52.50363" lon="13.374120000000001">
    <ele>36.62</ele>
   </trkpt>
   <trkpt lat="52.50441000429979" lon="13.374571626594046">
    <ele>37.13</ele>
   </trkpt>
   <trkpt lat="52.50519000688032" lon="13.375023269216108">
    <ele>37.57000000000001</ele>
   </trkpt>
   <trkpt lat="52.50597000774144" lon="13.375474927867177">
    <ele>37.94</ele>
   </trkpt>
   <trkpt lat="52.50675000688306" lon="13.375926602548232">
    <ele>37.93000000000001</ele>
   </trkpt>
   <trkpt lat="52.50753000430507" lon="13.376378293260263">
    <ele>38.09</ele>
   </trkpt>
   <trkpt lat="52.50831" lon="13.376830000000002">
    <ele>38.68000000000001</ele>
   </trkpt>
   <trkpt lat="52.508370000000006" lon="13.376890000000001">
    <ele>38.68000000000001</ele>
   </trkpt>
   <trkpt lat="52.50845" lon="13.377070000000002">
    <ele>38.790000000000006</ele>
   </trkpt>
   <trkpt lat="52.50856" lon="13.376930000000002">
    <ele>38.89</ele>
   </trkpt>
   <trkpt lat="52.50858" lon="13.376940000000001">
    <ele>38.89</ele>
   </trkpt>
   <trkpt lat="52.508790000000005" lon="13.376700000000001">
    <ele>38.89</ele>
   </trkpt>
   <trkpt lat="52.50892" lon="13.376600000000002">
    <ele>38.900000000000006</ele>
   </trkpt>
   <trkpt lat="52.508990000000004" lon="13.376570000000001">
    <ele>38.900000000000006</ele>
   </trkpt>
   <trkpt lat="52.509280000000004" lon="13.376500000000002">
    <ele>38.93000000000001</ele>
   </trkpt>
   <trkpt lat="52.509280000000004" lon="13.37644">
    <ele>38.93000000000001</ele>
   </trkpt>
   <trkpt lat="52.50965000000001" lon="13.376370000000001">
    <ele>38.39</ele>
   </trkpt>
   <trkpt lat="52.51003000000001" lon="13.376360000000002">
    <ele>37.78</ele>
   </trkpt>
   <trkpt lat="52.51023000000001" lon="13.37644">
    <ele>37.59</ele>
   </trkpt>
   <trkpt lat="52.51090666683746" lon="13.376583328918944">
    <ele>37.38</ele>
   </trkpt>
   <trkpt lat="52.51158333350177" lon="13.376726662251693">
    <ele>36.99</ele>
   </trkpt>
   <trkpt lat="52.512260000000005" lon="13.37687">
    <ele>36.660000000000004</ele>
   </trkpt>
   <trkpt lat="52.51249000000001" lon="13.37687">
    <ele>36.61</ele>
   </trkpt>
   <trkpt lat="52.51279" lon="13.376830000000002">
    <ele>36.64000000000001</ele>
   </trkpt>
   <trkpt lat="52.51286" lon="13.37686">
    <ele>36.6</ele>
   </trkpt>
   <trkpt lat="52.513660000155774" lon="13.377029996912297">
    <ele>36.730000000000004</ele>
   </trkpt>
   <trkpt lat="52.51446000000001" lon="13.377200000000002">
    <ele>36.71</ele>
   </trkpt>
   <trkpt lat="52.514430000000004" lon="13.37761">
    <ele>36.94</ele>
   </trkpt>
   <trkpt lat="52.51503999994353" lon="13.377699998737224">
    <ele>37.290000000000006</ele>
   </trkpt>
   <trkpt lat="52.51565" lon="13.377790000000001">
    <ele>37.78</ele>
   </trkpt>
   <trkpt lat="52.515840000000004" lon="13.37771">
    <ele>38.50000000000001</ele>
   </trkpt>
   <trkpt lat="52.516000000000005" lon="13.377540000000002">
    <ele>38.63</ele>
   </trkpt>
   <trkpt lat="52.51625000000001" lon="13.377490000000002">
    <ele>38.720000000000006</ele>
   </trkpt>
   <trkpt lat="52.516270000000006" lon="13.37775">
    <ele>38.720000000000006</ele>
   </trkpt>
  </trkseg>
 </trk>
</gpx>
